GLOBALSTAR M035         
1 25851U 99037A   25184.87564003 -.00000100  00000+0 -13585-2 0  9998
2 25851  51.9978  17.7489 0013976  12.0298  94.2121 11.04538518 98109
GLOBALSTAR M032         
1 25852U 99037B   25184.32097273 -.00000042  00000+0  80418-3 0  9993
2 25852  51.9910 203.0708 0012257 194.1539 165.8919 11.19061998136596
GLOBALSTAR M051         
1 25853U 99037C   25184.85711576 -.00000084  00000+0 -30176-3 0  9994
2 25853  51.9821   0.6783 0000391 153.6973 206.3858 11.42204678134298
GLOBALSTAR M030         
1 25854U 99037D   25184.95827547 -.00000050  00000+0  53485-3 0  9992
2 25854  51.9844 165.4730 0003060  70.9571 289.1577 11.55108822151987
GLOBALSTAR M048         
1 25872U 99041A   25184.71120035 -.00000064  00000+0  15662-3 0  9999
2 25872  51.9385 296.7045 0013570 211.1388 298.2332 11.33857647126856
GLOBALSTAR M026         
1 25873U 99041B   25184.84730824  .00000020  00000+0  31142-2 0  9998
2 25873  51.9992 135.5956 0002281 309.8045  74.2630 11.06841016150330
GLOBALSTAR M043         
1 25874U 99041C   25184.78788749 -.00000079  00000+0 -33023-3 0  9998
2 25874  51.9421  44.8265 0013480 343.5590  97.2261 11.25695623124749
GLOBALSTAR M028         
1 25875U 99041D   25184.61754774 -.00000070  00000+0  19827-3 0  9998
2 25875  51.9606 144.0716 0063366 106.8407 253.9416 12.50584417192233
